IRIDIUM 155             
1 43573U 18061E   24267.91530424  .00000630  00000+0  21799-3 0  9996
2 43573  86.3973 320.5095 0002154  98.6642 261.4798 14.34222107322876
IRIDIUM 154             
1 43574U 18061F   24267.89627642 -.00000611  00000+0 -22541-3 0  9990
2 43574  86.3982 320.6196 0002068  87.3831 272.7601 14.34216561322920
IRIDIUM 163             
1 43575U 18061G   24267.87724616  .00000299  00000+0  99674-4 0  9990
2 43575  86.3973 320.5630 0002083  94.4293 265.7141 14.34220876322892
IRIDIUM 156             
1 43576U 18061H   24267.85187431  .00000245  00000+0  80473-4 0  9995
2 43576  86.3973 320.5804 0002291 102.5052 257.6400 14.34215870322886
IRIDIUM 164             
1 43577U 18061J   24268.18169554  .00000289  00000+0  96236-4 0  9991
2 43577  86.3975 320.4727 0002475  93.1473 267.0006 14.34219314322972
IRIDIUM 159             
1 43578U 18061K   24267.66160036  .00000377  00000+0  12754-3 0  9990
2 43578  86.3975 320.6401 0002284  95.3283 264.8174 14.34221264322861
IRIDIUM 180             
1 43922U 19002A   24267.94017609  .00000360  00000+0  12151-3 0  9990
2 43922  86.3913 257.3548 0002346  84.5439 275.6024 14.34219475298515
IRIDIUM 176             
1 43923U 19002B   24268.21478244  .00001022  00000+0  15822-3 0  9992
2 43923  86.6043 257.2534 0002720  85.3804 274.7724 14.72258949306415
IRIDIUM 168             
1 43924U 19002C   24267.93383062  .00000105  00000+0  30347-4 0  9995
2 43924  86.3916 257.4172 0002352  87.6014 272.5451 14.34217978298497
IRIDIUM 173             
1 43925U 19002D   24267.92114534 -.00000079  00000+0 -35167-4 0  9998
2 43925  86.3914 257.3373 0002210  85.4394 274.7054 14.34217174298477
IRIDIUM 169             
1 43926U 19002E   24267.61628796  .00000371  00000+0  11468-3 0  9995
2 43926  86.4171 289.1168 0000395 118.8874 241.2364 14.38611407299425
IRIDIUM 172             
1 43927U 19002F   24267.91480273  .00000207  00000+0  67016-4 0  9994
2 43927  86.3913 257.3458 0002310  89.6258 270.5202 14.34219030298481
IRIDIUM 175             
1 43928U 19002G   24267.86942318  .00003368  00000+0  53005-3 0  9995
2 43928  86.1519 224.9790 0002117  92.5566 267.5893 14.72251951306359
IRIDIUM 171             
1 43929U 19002H   24267.40739384  .00000339  00000+0  11401-3 0  9992
2 43929  86.3922 257.7948 0002552  93.6177 266.5311 14.34219862298405
IRIDIUM 170             
1 43930U 19002J   24267.94908424  .00001138  00000+0  17653-3 0  9999
2 43930  86.6043 257.3700 0002629  85.5221 274.6297 14.72260807306388
IRIDIUM 167             
1 43931U 19002K   24267.95920073  .00000001  00000+0 -67207-5 0  9996
2 43931  86.3915 257.3443 0002255  91.5616 268.5838 14.34217560298488
IRIDIUM 181             
1 56726U 23068S   24267.95251850  .00000828  00000+0  23886-3 0  9998
2 56726  86.8627 315.9182 0002400  99.5712 260.5761 14.43581540 71384
IRIDIUM 177             
1 56727U 23068T   24268.05892406  .00001472  00000+0  19035-3 0  9996
2 56727  86.1917 268.3998 0002098  97.1531 262.9928 14.80211614 73007
IRIDIUM 174             
1 56728U 23068U   24267.91839446  .00001474  00000+0  19063-3 0  9999
2 56728  86.1923 268.5782 0002293  96.8873 263.2609 14.80194991 72984
IRIDIUM 178             
1 56729U 23068V   24267.77753521  .00001158  00000+0  14892-3 0  9997
2 56729  86.5730 290.7977 0002459  93.6910 266.4593 14.80235706 72964
IRIDIUM 179             
1 56730U 23068W   24267.63688632  .00002432  00000+0  31657-3 0  9998
2 56730  86.6747 296.2370 0001835  95.8500 264.2931 14.80240526 72945
